STARLINK-34410          
1 64440U 25130C   26159.91492589  .00023887  00000+0  81554-3 0  9992
2 64440  53.1589  24.5542 0001483  79.2155 280.9013 15.30219755 54671
STARLINK-34453          
1 64441U 25130D   26160.31631255  .00028050  00000+0  83786-3 0  9990
2 64441  53.1590  22.0887 0001510  89.0574 271.0602 15.34413122 54745
STARLINK-34404          
1 64442U 25130E   26159.87088615  .00016801  00000+0  50730-3 0  9990
2 64442  53.1612  24.2861 0001424  87.5893 272.5272 15.34397769 54677
STARLINK-34403          
1 64443U 25130F   26160.30892114  .00026897  00000+0  91670-3 0  9992
2 64443  53.1605  22.7417 0001415  85.7379 274.3784 15.30209426 54732
STARLINK-34399          
1 64444U 25130G   26159.89814483  .00024794  00000+0  74218-3 0  9991
2 64444  53.1593  23.7424 0001163  42.8925 317.2168 15.34414274 54689
STARLINK-34398          
1 64445U 25130H   26160.35324644  .00020251  00000+0  69377-3 0  9994
2 64445  53.1599  23.0219 0001169  89.6579 270.4555 15.30211062 54733
STARLINK-34402          
1 64446U 25130J   26159.90858882  .00017280  00000+0  59455-3 0  9994
2 64446  53.1597  24.5144 0001210  92.4318 267.6821 15.30181206 54678
STARLINK-34450          
1 64447U 25130K   26160.35113301  .00025006  00000+0  85260-3 0  9994
2 64447  53.1611  23.0088 0001272  70.0753 290.0385 15.30236825 54730
STARLINK-34433          
1 64448U 25130L   26160.88101414  .00034102  00000+0  11558-2 0  9990
2 64448  53.1606  20.6223 0001757 122.2202 237.8969 15.30267577 54810
STARLINK-34459          
1 64449U 25130M   26159.87930242  .00024521  00000+0  73441-3 0  9991
2 64449  53.1612  24.3342 0001431  77.6982 282.4181 15.34403856 54670
STARLINK-34361          
1 64450U 25130N   26159.91497793  .00031212  00000+0  93045-3 0  9994
2 64450  53.1592  23.8460 0001391  95.3544 264.7618 15.34420146 55850
STARLINK-34392          
1 64451U 25130P   26160.35640893  .00017867  00000+0  61390-3 0  9994
2 64451  53.1606  23.0353 0001281  88.1561 271.9586 15.30201506 54730
STARLINK-34367          
1 64452U 25130Q   26160.31313768  .00016124  00000+0  55571-3 0  9998
2 64452  53.1573  22.7650 0000485  37.4121 322.6913 15.30177383 54726
STARLINK-34221          
1 64453U 25130R   26160.35198935  .00025382  00000+0  75951-3 0  9990
2 64453  53.1604  21.5987 0001083  77.7064 282.4060 15.34412692 54758
STARLINK-34282          
1 64454U 25130S   26160.32288592  .00021770  00000+0  71084-3 0  9997
2 64454  53.1590  24.9579 0000922  79.1458 280.9647 15.31717699 54702
STARLINK-34295          
1 64455U 25130T   26160.88148675  .00029073  00000+0  86849-3 0  9995
2 64455  53.1590  19.2093 0001185   7.9646 352.1375 15.34391728 54839
STARLINK-34430          
1 64456U 25130U   26159.91386785  .00017311  00000+0  59499-3 0  9997
2 64456  53.1582  24.5410 0001049  92.9560 267.1561 15.30213246 54679
STARLINK-34445          
1 64457U 25130V   26160.87938896  .00022674  00000+0  68000-3 0  9997
2 64457  53.1602  19.1950 0000831  94.8840 265.2258 15.34408565 54836
STARLINK-34439          
1 64458U 25130W   26160.30997698  .00013833  00000+0  47814-3 0  9998
2 64458  53.1580  22.7423 0001342  70.0734 290.0411 15.30210827 54737
STARLINK-34421          
1 64459U 25130X   26160.34778148  .00021370  00000+0  64151-3 0  9998
2 64459  53.1604  21.5687 0001323  76.3395 283.7755 15.34414355 54753
STARLINK-34423          
1 64460U 25130Y   26159.91176051  .00018960  00000+0  64996-3 0  9994
2 64460  53.1595  24.5254 0000374 112.0288 248.0752 15.30232915 54679
STARLINK-34418          
1 64461U 25130Z   26160.34902407  .00019310  00000+0  66178-3 0  9990
2 64461  53.1606  22.9867 0001013  78.6271 281.4843 15.30229210 54738
STARLINK-34336          
1 64462U 25130AA  26160.33687890  .00030721  00000+0  99692-3 0  9992
2 64462  53.1603  24.9800 0001794  92.1994 267.9213 15.31723722 54709
STARLINK-34400          
1 64463U 25130AB  26160.00004630  .00034961  00000+0  11334-2 0  9998
2 64463  53.1607  26.9173 0000566  79.7188  67.4388 15.31690976  5831
STARLINK-34429          
1 64464U 25130AC  26160.34988502  .00024787  00000+0  74189-3 0  9998
2 64464  53.1611  21.5822 0001787  46.0691 314.0458 15.34417756 54751
STARLINK-34449          
1 64465U 25130AD  26160.32262051  .00018588  00000+0  55974-3 0  9994
2 64465  53.1602  22.1107 0001409  84.8613 275.2551 15.34409696 54745
STARLINK-34493          
1 64472U 25133A   26159.85878179  .00024197  00000+0  82650-3 0  9999
2 64472  53.1586  53.5587 0000911  86.6999 273.4106 15.30196625 55140
STARLINK-34492          
1 64473U 25133B   26159.98625056  .00022995  00000+0  78578-3 0  9996
2 64473  53.1578  52.9310 0001304  97.9298 262.1851 15.30213840 55166
STARLINK-34474          
1 64474U 25133C   26159.98308407  .00023168  00000+0  79125-3 0  9997
2 64474  53.1595  52.9101 0001611  83.6959 276.4225 15.30227279 55143
STARLINK-34523          
1 64475U 25133D   26159.97511224  .00034925  00000+0  10395-2 0  9996
2 64475  53.1587  50.0209 0001082  95.9535 264.1591 15.34414013 55183
