OBJECT_NAME,OBJECT_ID,EPOCH,MEAN_MOTION,ECCENTRICITY,INCLINATION,RA_OF_ASC_NODE,ARG_OF_PERICENTER,MEAN_ANOMALY,EPHEMERIS_TYPE,CLASSIFICATION_TYPE,NORAD_CAT_ID,ELEMENT_SET_NO,REV_AT_EPOCH,BSTAR,MEAN_MOTION_DOT,MEAN_MOTION_DDOT
STARLINK-34410,2025-130C,2026-06-08T21:57:29.596896,15.30219755,.00014837,53.1589,24.5542,79.2155,280.9013,0,U,64440,999,5467,.81553689E-3,.23887E-3,0
STARLINK-34453,2025-130D,2026-06-09T07:35:29.404320,15.34413122,.00015101,53.1590,22.0887,89.0574,271.0602,0,U,64441,999,5474,.83786189E-3,.2805E-3,0
STARLINK-34404,2025-130E,2026-06-08T20:54:04.563360,15.34397769,.00014243,53.1612,24.2861,87.5893,272.5272,0,U,64442,999,5467,.5072957E-3,.16801E-3,0
STARLINK-34403,2025-130F,2026-06-09T07:24:50.786496,15.30209426,.0001415,53.1605,22.7417,85.7379,274.3784,0,U,64443,999,5473,.91670139E-3,.26897E-3,0
STARLINK-34399,2025-130G,2026-06-08T21:33:19.713312,15.34414274,.00011636,53.1593,23.7424,42.8925,317.2168,0,U,64444,999,5468,.74217745E-3,.24794E-3,0
STARLINK-34398,2025-130H,2026-06-09T08:28:40.492416,15.30211062,.00011697,53.1599,23.0219,89.6579,270.4555,0,U,64445,999,5473,.6937731E-3,.20251E-3,0
STARLINK-34402,2025-130J,2026-06-08T21:48:22.074048,15.30181206,.00012101,53.1597,24.5144,92.4318,267.6821,0,U,64446,999,5467,.59455016E-3,.1728E-3,0
STARLINK-34450,2025-130K,2026-06-09T08:25:37.892064,15.30236825,.00012725,53.1611,23.0088,70.0753,290.0385,0,U,64447,999,5473,.85260496E-3,.25006E-3,0
STARLINK-34433,2025-130L,2026-06-09T21:08:39.621696,15.30267577,.00017576,53.1606,20.6223,122.2202,237.8969,0,U,64448,999,5481,.11558172E-2,.34102E-3,0
STARLINK-34459,2025-130M,2026-06-08T21:06:11.729088,15.34403856,.00014317,53.1612,24.3342,77.6982,282.4181,0,U,64449,999,5467,.73440616E-3,.24521E-3,0
STARLINK-34361,2025-130N,2026-06-08T21:57:34.093152,15.34420146,.00013916,53.1592,23.8460,95.3544,264.7618,0,U,64450,999,5585,.93045384E-3,.31212E-3,0
STARLINK-34392,2025-130P,2026-06-09T08:33:13.731552,15.30201506,.00012814,53.1606,23.0353,88.1561,271.9586,0,U,64451,999,5473,.61389552E-3,.17867E-3,0
STARLINK-34367,2025-130Q,2026-06-09T07:30:55.095552,15.30177383,.00004856,53.1573,22.7650,37.4121,322.6913,0,U,64452,999,5472,.5557062E-3,.16124E-3,0
STARLINK-34221,2025-130R,2026-06-09T08:26:51.879840,15.34412692,.00010833,53.1604,21.5987,77.7064,282.4060,0,U,64453,999,5475,.75950543E-3,.25382E-3,0
STARLINK-34282,2025-130S,2026-06-09T07:44:57.343488,15.31717699,.00009227,53.1590,24.9579,79.1458,280.9647,0,U,64454,999,5470,.7108355E-3,.2177E-3,0
STARLINK-34295,2025-130T,2026-06-09T21:09:20.455200,15.34391728,.00011853,53.1590,19.2093,7.9646,352.1375,0,U,64455,999,5483,.86848794E-3,.29073E-3,0
STARLINK-34430,2025-130U,2026-06-08T21:55:58.182240,15.30213246,.00010496,53.1582,24.5410,92.9560,267.1561,0,U,64456,999,5467,.59498796E-3,.17311E-3,0
STARLINK-34445,2025-130V,2026-06-09T21:06:19.206144,15.34408565,.00008315,53.1602,19.1950,94.8840,265.2258,0,U,64457,999,5483,.67999885E-3,.22674E-3,0
STARLINK-34439,2025-130W,2026-06-09T07:26:22.011072,15.30210827,.00013424,53.1580,22.7423,70.0734,290.0411,0,U,64458,999,5473,.47814338E-3,.13833E-3,0
STARLINK-34421,2025-130X,2026-06-09T08:20:48.319872,15.34414355,.00013238,53.1604,21.5687,76.3395,283.7755,0,U,64459,999,5475,.64151078E-3,.2137E-3,0
STARLINK-34423,2025-130Y,2026-06-08T21:52:56.108064,15.30232915,.00003745,53.1595,24.5254,112.0288,248.0752,0,U,64460,999,5467,.64995688E-3,.1896E-3,0
STARLINK-34418,2025-130Z,2026-06-09T08:22:35.679648,15.30229210,.00010138,53.1606,22.9867,78.6271,281.4843,0,U,64461,999,5473,.66178387E-3,.1931E-3,0
STARLINK-34336,2025-130AA,2026-06-09T08:05:06.336960,15.31723722,.00017949,53.1603,24.9800,92.1994,267.9213,0,U,64462,999,5470,.99691961E-3,.30721E-3,0
STARLINK-34400,2025-130AB,2026-06-09T00:00:04.000320,15.31690976,.00005666,53.1607,26.9173,79.7188,67.4388,0,U,64463,999,583,.11334131E-2,.34961E-3,0
STARLINK-34429,2025-130AC,2026-06-09T08:23:50.065728,15.34417756,.00017874,53.1611,21.5822,46.0691,314.0458,0,U,64464,999,5475,.74188989E-3,.24787E-3,0
STARLINK-34449,2025-130AD,2026-06-09T07:44:34.412064,15.34409696,.00014097,53.1602,22.1107,84.8613,275.2551,0,U,64465,999,5474,.5597439E-3,.18588E-3,0
STARLINK-34493,2025-133A,2026-06-08T20:36:38.746656,15.30196625,.00009117,53.1586,53.5587,86.6999,273.4106,0,U,64472,999,5514,.82649823E-3,.24197E-3,0
STARLINK-34492,2025-133B,2026-06-08T23:40:12.048384,15.30213840,.0001304,53.1578,52.9310,97.9298,262.1851,0,U,64473,999,5516,.785777E-3,.22995E-3,0
STARLINK-34474,2025-133C,2026-06-08T23:35:38.463648,15.30227279,.00016118,53.1595,52.9101,83.6959,276.4225,0,U,64474,999,5514,.79125307E-3,.23168E-3,0
STARLINK-34523,2025-133D,2026-06-08T23:24:09.697536,15.34414013,.00010824,53.1587,50.0209,95.9535,264.1591,0,U,64475,999,5518,.10395143E-2,.34925E-3,0
